GPS BIIR-2  (PRN 13)    
1 24876C 97035A   23041.83090278 -.00000000  00000-0  00000-0 0   417
2 24876  55.5475 146.3702 0065883  52.4612  54.5632  2.00563943    11
GPS BIIR-4  (PRN 20)    
1 26360C 00025A   23041.83090278 -.00000000  00000-0  00000-0 0   410
2 26360  54.2569  69.0386 0045339 195.4860   0.8712  2.00555161    13
GPS BIIR-8  (PRN 16)    
1 27663C 03005A   23041.83090278  .00000000  00000-0  00000-0 0   417
2 27663  55.3602 263.5876 0132132  42.9155 127.5682  2.00550946    15
GPS BIIR-9  (PRN 21)    
1 27704C 03010A   23041.83090278 -.00000000  00000-0  00000-0 0   410
2 27704  55.0909  13.6668 0249826 312.7504  77.2220  2.00566249    18
GPS BIIR-11 (PRN 19)    
1 28190C 04009A   23041.83090278  .00000000  00000-0  00000-0 0   418
2 28190  55.8472 324.6212 0089092 129.0836 199.5528  2.00571990    13
GPS BIIR-13 (PRN 02)    
1 28474C 04045A   23041.83090278 -.00000000  00000-0  00000-0 0   414
2 28474  55.4159  13.8981 0202409 283.6242 255.8402  2.00562585    10
GPS BIIRM-1 (PRN 17)    
1 28874C 05038A   23041.83090278  .00000000  00000-0  00000-0 0   410
2 28874  55.9043 322.0648 0139275 278.3500  78.0979  2.00559410    11
GPS BIIRM-2 (PRN 31)    
1 29486C 06042A   23041.83090278  .00000000  00000-0  00000-0 0   416
2 29486  54.6952 199.8037 0106837  27.5812 245.3871  2.00565754    14
GPS BIIRM-3 (PRN 12)    
1 29601C 06052A   23041.83090278  .00000000  00000-0  00000-0 0   416
2 29601  55.3744 262.5360 0086841  76.0844 232.8015  2.00565274    11
GPS BIIRM-4 (PRN 15)    
1 32260C 07047A   23041.83090278 -.00000000  00000-0  00000-0 0   417
2 32260  53.3870 130.6614 0145396  67.1748  24.5858  2.00562771    16
GPS BIIRM-5 (PRN 29)    
1 32384C 07062A   23041.83090278  .00000000  00000-0  00000-0 0   410
2 32384  56.0305 322.8575 0020305 142.2405  76.9235  2.00574570    14
GPS BIIRM-6 (PRN 07)    
1 32711C 08012A   23041.83090278  .00000000  00000-0  00000-0 0   410
2 32711  54.4592 198.6845 0169111 232.9417 277.8343  2.00572926    11
GPS BIIRM-8 (PRN 05)    
1 35752C 09043A   23041.83090278 -.00000000  00000-0  00000-0 0   414
2 35752  55.2611  75.9463 0055547  63.7852 101.2313  2.00571125    10
GPS BIIF-1  (PRN 25)    
1 36585C 10022A   23041.83090278  .00000000  00000-0  00000-0 0   417
2 36585  54.6654 257.8902 0109373  58.3516 228.0463  2.00551454    15
GPS BIIF-2  (PRN 01)    
1 37753C 11036A   23041.83090278 -.00000000  00000-0  00000-0 0   412
2 37753  56.6952  19.4370 0121569  52.9494 313.1730  2.00567033    16
GPS BIIF-3  (PRN 24)    
1 38833C 12053A   23041.83090278  .00000000  00000-0  00000-0 0   411
2 38833  53.5172 193.5936 0135547  50.0230 329.0011  2.00564628    11
GPS BIIF-4  (PRN 27)    
1 39166C 13023A   23041.83090278  .00000000  00000-0  00000-0 0   419
2 39166  55.5239 318.3435 0111596  39.0955  81.5057  2.00565106    19
GPS BIIF-5  (PRN 30)    
1 39533C 14008A   23041.83090278  .00000000  00000-0  00000-0 0   411
2 39533  53.6073 199.1263 0062243 209.8018 267.9887  2.00567090    12
GPS BIIF-6  (PRN 06)    
1 39741C 14026A   23041.83090278 -.00000000  00000-0  00000-0 0   413
2 39741  56.6523  18.9613 0030842 308.7738 329.3927  2.00571925    11
GPS BIIF-7  (PRN 09)    
1 40105C 14045A   23041.83090278 -.00000000  00000-0  00000-0 0   410
2 40105  54.7507 137.2842 0022995 114.7968  97.0787  2.00563137    16
GPS BIIF-8  (PRN 03)    
1 40294C 14068A   23041.83090278 -.00000000  00000-0  00000-0 0   414
2 40294  56.0041  78.5350 0042572  56.5208 248.4664  2.00557971    12
GPS BIIF-9  (PRN 26)    
1 40534C 15013A   23041.83090278  .00000000  00000-0  00000-0 0   411
2 40534  53.5650 254.8132 0077515  24.0111 183.8225  2.00567642    13
GPS BIIF-10 (PRN 08)    
1 40730C 15033A   23041.83090278  .00000000  00000-0  00000-0 0   411
2 40730  55.0165 317.0573 0082474  10.5888  81.9501  2.00565825    17
GPS BIIF-11 (PRN 10)    
1 41019C 15062A   23041.83090278 -.00000000  00000-0  00000-0 0   415
2 41019  55.9906  78.3819 0085973 221.0180 191.7636  2.00562428    16
GPS BIIF-12 (PRN 32)    
1 41328C 16007A   23041.83090278 -.00000000  00000-0  00000-0 0   418
2 41328  54.9614 138.0129 0067703 231.8571 118.1635  2.00559397    19
GPS BIII-1  (PRN 04)    
1 43873C 18109A   23041.83090278 -.00000000  00000-0  00000-0 0   410
2 43873  55.1393 140.4837 0023354 190.9955  49.2734  2.00558785    15
GPS BIII-2  (PRN 18)    
1 44506C 19056A   23041.83090278 -.00000000  00000-0  00000-0 0   416
2 44506  55.7710  19.5821 0029851 186.5410 314.5919  2.00561760    12
GPS BIII-3  (PRN 23)    
1 45854C 20041A   23041.83090278 -.00000000  00000-0  00000-0 0   419
2 45854  55.7105  76.8536 0030135 186.4740 256.3976  2.00566803    17
GPS BIII-4  (PRN 14)    
1 46826C 20078A   23041.83090278  .00000000  00000-0  00000-0 0   418
2 46826  54.4208 260.4160 0026634 188.2879 230.7300  2.00564565    13
GPS BIII-5  (PRN 11)    
1 48859C 21054A   23041.83090278 -.00000000  00000-0  00000-0 0   412
2 48859  55.2827  21.4658 0008951 219.8764  22.8987  2.00560560    12
GPS BIII-6  (PRN 28)    
1 55268C 23009A   23041.83090278  .00000000  00000-0  00000-0 0   415
2 55268  55.0988 196.4747 0007970  97.7218 185.8075  2.00569889    10
